[Satellite]
VERSION=1.1
NAME=MAROC-TUBSAT
NICKNAME=MAROC-TUBSAT
TLE1=1 27004U 01056D   15053.22856387 -.00000003  00000-0  44551-4 0  9997
TLE2=2 27004  99.2301 211.0755 0019922  21.4466  82.5251 13.70098958660203
